{
    "links": {
        "self": "http://www.neowsapp.com/rest/v1/neo/3879142?api_key=iIulBulltgU6a56xZRHN4H3l9WmuAYTsLGpBGhQ2"
    },
    "id": "3879142",
    "neo_reference_id": "3879142",
    "name": "(2019 TP6)",
    "designation": "2019 TP6",
    "nasa_jpl_url": "http://ssd.jpl.nasa.gov/sbdb.cgi?sstr=3879142",
    "absolute_magnitude_h": 22.6,
    "estimated_diameter": {
        "kilometers": {
            "estimated_diameter_min": 0.0802703167,
            "estimated_diameter_max": 0.1794898848
        },
        "meters": {
            "estimated_diameter_min": 80.2703167283,
            "estimated_diameter_max": 179.4898847799
        },
        "miles": {
            "estimated_diameter_min": 0.049877647,
            "estimated_diameter_max": 0.1115298092
        },
        "feet": {
            "estimated_diameter_min": 263.3540659348,
            "estimated_diameter_max": 588.8775935812
        }
    },
    "is_potentially_hazardous_asteroid": false,
    "close_approach_data": [
        {
            "close_approach_date": "2019-10-12",
            "close_approach_date_full": "2019-Oct-12 22:14",
            "epoch_date_close_approach": 1570918440000,
            "relative_velocity": {
                "kilometers_per_second": "6.9036255675",
                "kilometers_per_hour": "24853.0520429958",
                "miles_per_hour": "15442.7200319381"
            },
            "miss_distance": {
                "astronomical": "0.2918653255",
                "lunar": "113.5356116195",
                "kilometers": "43662431.021656685",
                "miles": "27130576.575304853"
            },
            "orbiting_body": "Earth"
        }
    ],
    "orbital_data": {
        "orbit_id": "3",
        "orbit_determination_date": "2019-11-02 08:15:24",
        "first_observation_date": "2019-10-08",
        "last_observation_date": "2019-11-01",
        "data_arc_in_days": 24,
        "observations_used": 23,
        "orbit_uncertainty": "7",
        "minimum_orbit_intersection": ".244743",
        "jupiter_tisserand_invariant": "3.568",
        "epoch_osculation": "2459000.5",
        "eccentricity": ".420606010192308",
        "semi_major_axis": "2.140269080325409",
        "inclination": "12.29180949680562",
        "ascending_node_longitude": "23.38464425134979",
        "orbital_period": "1143.670694952562",
        "perihelion_distance": "1.240059041711779",
        "perihelion_argument": "348.0409800732811",
        "aphelion_distance": "3.04047911893904",
        "perihelion_time": "2458751.752671381927",
        "mean_anomaly": "78.29967026148269",
        "mean_motion": ".3147759242138596",
        "equinox": "J2000",
        "orbit_class": {
            "orbit_class_type": "AMO",
            "orbit_class_description": "Near-Earth asteroid orbits similar to that of 1221 Amor",
            "orbit_class_range": "1.017 AU < q (perihelion) < 1.3 AU"
        }
    },
    "is_sentry_object": false
}